{
  "type": "FeatureCollection",
  "features": [
    {
      "type": "Feature",
      "properties": {
        "norad_id": 30110,
        "name": "FENGYUN 1C DEB",
        "group": "fengyun-1c-debris",
        "lat": -77.41871973930472,
        "lon": -116.80329239184711,
        "alt_km": 944.8737242591087,
        "timestamp": "2025-12-26T07:29:18.729550+00:00",
        "meta_object_name": "FENGYUN 1C DEB",
        "meta_object_id": "1999-025RP",
        "meta_epoch": "2025-12-25T05:23:44.300256",
        "meta_mean_motion": 13.56230288,
        "meta_eccentricity": 0.0267201,
        "meta_inclination": 98.9076,
        "meta_ra_of_asc_node": 106.8546,
        "meta_arg_of_pericenter": 320.84,
        "meta_mean_anomaly": 37.367,
        "meta_ephemeris_type": 0,
        "meta_classification_type": "U",
        "meta_norad_cat_id": 30110,
        "meta_element_set_no": 999,
        "meta_rev_at_epoch": 93684,
        "meta_bstar": 0.00029743,
        "meta_mean_motion_dot": 2.23e-06,
        "meta_mean_motion_ddot": 0,
        "tle_line1": "1 30110U 99025RP  25359.22481829  .00000223  00000+0  29743-3 0  9994",
        "tle_line2": "2 30110  98.9076 106.8546 0267201 320.8400  37.3670 13.56230288936845"
      },
      "geometry": {
        "type": "Point",
        "coordinates": [
          -116.80329239184711,
          -77.41871973930472
        ]
      }
    },
    {
      "type": "Feature",
      "properties": {
        "norad_id": 30112,
        "name": "FENGYUN 1C DEB",
        "group": "fengyun-1c-debris",
        "lat": 73.06767448990911,
        "lon": -57.518160297215275,
        "alt_km": 666.3205886227988,
        "timestamp": "2025-12-26T07:29:18.729560+00:00",
        "meta_object_name": "FENGYUN 1C DEB",
        "meta_object_id": "1999-025RR",
        "meta_epoch": "2025-12-25T21:00:52.602048",
        "meta_mean_motion": 14.22261859,
        "meta_eccentricity": 0.02018253,
        "meta_inclination": 99.283,
        "meta_ra_of_asc_node": 334.518,
        "meta_arg_of_pericenter": 70.4424,
        "meta_mean_anomaly": 291.8423,
        "meta_ephemeris_type": 0,
        "meta_classification_type": "U",
        "meta_norad_cat_id": 30112,
        "meta_element_set_no": 999,
        "meta_rev_at_epoch": 97769,
        "meta_bstar": 0.00063698265,
        "meta_mean_motion_dot": 1.691e-05,
        "meta_mean_motion_ddot": 0,
        "tle_line1": "1 30112U 99025RR  25359.87560882  .00001691  00000+0  63698-3 0  9991",
        "tle_line2": "2 30112  99.2830 334.5180 0201825  70.4424 291.8423 14.22261859977690"
      },
      "geometry": {
        "type": "Point",
        "coordinates": [
          -57.518160297215275,
          73.06767448990911
        ]
      }
    },
    {
      "type": "Feature",
      "properties": {
        "norad_id": 30113,
        "name": "FENGYUN 1C DEB",
        "group": "fengyun-1c-debris",
        "lat": 5.514432242063261,
        "lon": -147.51365288762761,
        "alt_km": 721.5361216666879,
        "timestamp": "2025-12-26T07:29:18.729570+00:00",
        "meta_object_name": "FENGYUN 1C DEB",
        "meta_object_id": "1999-025RS",
        "meta_epoch": "2025-12-25T13:26:08.784960",
        "meta_mean_motion": 14.45489987,
        "meta_eccentricity": 0.0040357,
        "meta_inclination": 99.0376,
        "meta_ra_of_asc_node": 212.5664,
        "meta_arg_of_pericenter": 324.846,
        "meta_mean_anomaly": 88.4987,
        "meta_ephemeris_type": 0,
        "meta_classification_type": "U",
        "meta_norad_cat_id": 30113,
        "meta_element_set_no": 999,
        "meta_rev_at_epoch": 98094,
        "meta_bstar": 0.0020486,
        "meta_mean_motion_dot": 7.25e-05,
        "meta_mean_motion_ddot": 0,
        "tle_line1": "1 30113U 99025RS  25359.55982390  .00007250  00000+0  20486-2 0  9993",
        "tle_line2": "2 30113  99.0376 212.5664 0040357 324.8460  88.4987 14.45489987980949"
      },
      "geometry": {
        "type": "Point",
        "coordinates": [
          -147.51365288762761,
          5.514432242063261
        ]
      }
    },
    {
      "type": "Feature",
      "properties": {
        "norad_id": 30114,
        "name": "FENGYUN 1C DEB",
        "group": "fengyun-1c-debris",
        "lat": -28.550501625448167,
        "lon": 177.4836333865652,
        "alt_km": 901.8462959764238,
        "timestamp": "2025-12-26T07:29:18.729580+00:00",
        "meta_object_name": "FENGYUN 1C DEB",
        "meta_object_id": "1999-025RT",
        "meta_epoch": "2025-12-25T23:57:06.229728",
        "meta_mean_motion": 14.09661562,
        "meta_eccentricity": 0.00823328,
        "meta_inclination": 98.747,
        "meta_ra_of_asc_node": 1.9837,
        "meta_arg_of_pericenter": 82.7284,
        "meta_mean_anomaly": 332.5628,
        "meta_ephemeris_type": 0,
        "meta_classification_type": "U",
        "meta_norad_cat_id": 30114,
        "meta_element_set_no": 999,
        "meta_rev_at_epoch": 97341,
        "meta_bstar": 0.0001548758,
        "meta_mean_motion_dot": 2.38e-06,
        "meta_mean_motion_ddot": 0,
        "tle_line1": "1 30114U 99025RT  25359.99798877  .00000238  00000+0  15488-3 0  9993",
        "tle_line2": "2 30114  98.7470   1.9837 0082332  82.7284 332.5628 14.09661562973416"
      },
      "geometry": {
        "type": "Point",
        "coordinates": [
          177.4836333865652,
          -28.550501625448167
        ]
      }
    },
    {
      "type": "Feature",
      "properties": {
        "norad_id": 30115,
        "name": "FENGYUN 1C DEB",
        "group": "fengyun-1c-debris",
        "lat": 52.97940404769246,
        "lon": 15.638863675474825,
        "alt_km": 779.91345715027,
        "timestamp": "2025-12-26T07:29:18.729590+00:00",
        "meta_object_name": "FENGYUN 1C DEB",
        "meta_object_id": "1999-025RU",
        "meta_epoch": "2025-12-25T14:53:16.173312",
        "meta_mean_motion": 14.19827414,
        "meta_eccentricity": 0.0067202,
        "meta_inclination": 98.6216,
        "meta_ra_of_asc_node": 26.5715,
        "meta_arg_of_pericenter": 23.5978,
        "meta_mean_anomaly": 96.3862,
        "meta_ephemeris_type": 0,
        "meta_classification_type": "U",
        "meta_norad_cat_id": 30115,
        "meta_element_set_no": 999,
        "meta_rev_at_epoch": 97511,
        "meta_bstar": 0.00093232,
        "meta_mean_motion_dot": 1.979e-05,
        "meta_mean_motion_ddot": 0,
        "tle_line1": "1 30115U 99025RU  25359.62032608  .00001979  00000+0  93232-3 0  9993",
        "tle_line2": "2 30115  98.6216  26.5715 0067202  23.5978  96.3862 14.19827414975119"
      },
      "geometry": {
        "type": "Point",
        "coordinates": [
          15.638863675474825,
          52.97940404769246
        ]
      }
    },
    {
      "type": "Feature",
      "properties": {
        "norad_id": 30116,
        "name": "FENGYUN 1C DEB",
        "group": "fengyun-1c-debris",
        "lat": 78.84280485960052,
        "lon": 15.303881510904196,
        "alt_km": 798.4014222834594,
        "timestamp": "2025-12-26T07:29:18.729600+00:00",
        "meta_object_name": "FENGYUN 1C DEB",
        "meta_object_id": "1999-025RV",
        "meta_epoch": "2025-12-25T04:28:33.701088",
        "meta_mean_motion": 14.29363273,
        "meta_eccentricity": 0.00208733,
        "meta_inclination": 99.3962,
        "meta_ra_of_asc_node": 71.1858,
        "meta_arg_of_pericenter": 304.1443,
        "meta_mean_anomaly": 111.2925,
        "meta_ephemeris_type": 0,
        "meta_classification_type": "U",
        "meta_norad_cat_id": 30116,
        "meta_element_set_no": 999,
        "meta_rev_at_epoch": 97687,
        "meta_bstar": 0.0014075611,
        "meta_mean_motion_dot": 3.545e-05,
        "meta_mean_motion_ddot": 0,
        "tle_line1": "1 30116U 99025RV  25359.18650117  .00003545  00000+0  14076-2 0  9995",
        "tle_line2": "2 30116  99.3962  71.1858 0020873 304.1443 111.2925 14.29363273976878"
      },
      "geometry": {
        "type": "Point",
        "coordinates": [
          15.303881510904196,
          78.84280485960052
        ]
      }
    },
    {
      "type": "Feature",
      "properties": {
        "norad_id": 30117,
        "name": "FENGYUN 1C DEB",
        "group": "fengyun-1c-debris",
        "lat": 1.436811504457906,
        "lon": -11.80772544686442,
        "alt_km": 988.7324272901105,
        "timestamp": "2025-12-26T07:29:18.729610+00:00",
        "meta_object_name": "FENGYUN 1C DEB",
        "meta_object_id": "1999-025RW",
        "meta_epoch": "2025-12-25T21:32:33.351072",
        "meta_mean_motion": 14.07171102,
        "meta_eccentricity": 0.01642838,
        "meta_inclination": 98.8054,
        "meta_ra_of_asc_node": 348.0112,
        "meta_arg_of_pericenter": 172.0749,
        "meta_mean_anomaly": 251.6673,
        "meta_ephemeris_type": 0,
        "meta_classification_type": "U",
        "meta_norad_cat_id": 30117,
        "meta_element_set_no": 999,
        "meta_rev_at_epoch": 97174,
        "meta_bstar": 0.00015291511,
        "meta_mean_motion_dot": 2.47e-06,
        "meta_mean_motion_ddot": 0,
        "tle_line1": "1 30117U 99025RW  25359.89760823  .00000247  00000+0  15292-3 0  9998",
        "tle_line2": "2 30117  98.8054 348.0112 0164283 172.0749 251.6673 14.07171102971743"
      },
      "geometry": {
        "type": "Point",
        "coordinates": [
          -11.80772544686442,
          1.436811504457906
        ]
      }
    }
  ]
}